[
  {
    "OBJECT_NAME": "STARLINK-32206",
    "OBJECT_ID": "24131U",
    "EPOCH": "2025-11-11T01:36:27.937728",
    "MEAN_MOTION": 15.30201792,
    "ECCENTRICITY": 0.0001486,
    "INCLINATION": 53.1607,
    "RA_OF_ASC_NODE": 243.6662,
    "ARG_OF_PERICENTER": 104.9608,
    "MEAN_ANOMALY": 255.1557,
    "EPHEMERIS_TYPE": 0,
    "CLASSIFICATION_TYPE": "U",
    "NORAD_CAT_ID": 60273,
    "ELEMENT_SET_NO": 999,
    "REV_AT_EPOCH": 7355,
    "BSTAR": 0.0,
    "MEAN_MOTION_DOT": -2.547e-05,
    "MEAN_MOTION_DDOT": 0.0,
    "TLE_LINE1": "1 60273U 24131U   25315.06699002 -.00002547  00000+0 -73891-4 0  9998",
    "TLE_LINE2": "2 60273  53.1607 243.6662 0001486 104.9608 255.1557 15.30201792 73558",
    "COMMENT": "Grouped by shell and plane from TLE"
  },
  {
    "OBJECT_NAME": "STARLINK-32155",
    "OBJECT_ID": "24131V",
    "EPOCH": "2025-11-11T04:35:26.579904",
    "MEAN_MOTION": 15.30201661,
    "ECCENTRICITY": 0.000127,
    "INCLINATION": 53.1609,
    "RA_OF_ASC_NODE": 243.0098,
    "ARG_OF_PERICENTER": 106.8583,
    "MEAN_ANOMALY": 253.2557,
    "EPHEMERIS_TYPE": 0,
    "CLASSIFICATION_TYPE": "U",
    "NORAD_CAT_ID": 60274,
    "ELEMENT_SET_NO": 999,
    "REV_AT_EPOCH": 7347,
    "BSTAR": 9.058500000000001e-05,
    "MEAN_MOTION_DOT": 2.325e-05,
    "MEAN_MOTION_DDOT": 0.0,
    "TLE_LINE1": "1 60274U 24131V   25315.19127986  .00002325  00000+0  90585-4 0  9991",
    "TLE_LINE2": "2 60274  53.1609 243.0098 0001270 106.8583 253.2557 15.30201661 73477",
    "COMMENT": "Grouped by shell and plane from TLE"
  },
  {
    "OBJECT_NAME": "STARLINK-32152",
    "OBJECT_ID": "24131W",
    "EPOCH": "2025-11-11T05:17:54.764736",
    "MEAN_MOTION": 15.2998811,
    "ECCENTRICITY": 0.0002444,
    "INCLINATION": 53.1616,
    "RA_OF_ASC_NODE": 242.4813,
    "ARG_OF_PERICENTER": 75.2413,
    "MEAN_ANOMALY": 284.8858,
    "EPHEMERIS_TYPE": 0,
    "CLASSIFICATION_TYPE": "U",
    "NORAD_CAT_ID": 60275,
    "ELEMENT_SET_NO": 999,
    "REV_AT_EPOCH": 7348,
    "BSTAR": 0.0017442,
    "MEAN_MOTION_DOT": 0.0005132,
    "MEAN_MOTION_DDOT": 0.0,
    "TLE_LINE1": "1 60275U 24131W   25315.22077274  .00051320  00000+0  17442-2 0  9998",
    "TLE_LINE2": "2 60275  53.1616 242.4813 0002444  75.2413 284.8858 15.29988110 73483",
    "COMMENT": "Grouped by shell and plane from TLE"
  },
  {
    "OBJECT_NAME": "STARLINK-32154",
    "OBJECT_ID": "24131X",
    "EPOCH": "2025-11-11T05:08:42.477792",
    "MEAN_MOTION": 15.30222831,
    "ECCENTRICITY": 0.0001036,
    "INCLINATION": 53.1602,
    "RA_OF_ASC_NODE": 242.4391,
    "ARG_OF_PERICENTER": 77.2779,
    "MEAN_ANOMALY": 282.8338,
    "EPHEMERIS_TYPE": 0,
    "CLASSIFICATION_TYPE": "U",
    "NORAD_CAT_ID": 60276,
    "ELEMENT_SET_NO": 999,
    "REV_AT_EPOCH": 7358,
    "BSTAR": 0.0,
    "MEAN_MOTION_DOT": -2.707e-05,
    "MEAN_MOTION_DDOT": 0.0,
    "TLE_LINE1": "1 60276U 24131X   25315.21438053 -.00002707  00000+0 -79234-4 0  9990",
    "TLE_LINE2": "2 60276  53.1602 242.4391 0001036  77.2779 282.8338 15.30222831 73588",
    "COMMENT": "Grouped by shell and plane from TLE"
  },
  {
    "OBJECT_NAME": "STARLINK-32135",
    "OBJECT_ID": "24131Y",
    "EPOCH": "2025-11-11T05:33:01.677888",
    "MEAN_MOTION": 15.30204057,
    "ECCENTRICITY": 0.0001258,
    "INCLINATION": 53.161,
    "RA_OF_ASC_NODE": 242.5446,
    "ARG_OF_PERICENTER": 95.7771,
    "MEAN_ANOMALY": 264.3373,
    "EPHEMERIS_TYPE": 0,
    "CLASSIFICATION_TYPE": "U",
    "NORAD_CAT_ID": 60277,
    "ELEMENT_SET_NO": 999,
    "REV_AT_EPOCH": 7358,
    "BSTAR": 5.664400000000001e-05,
    "MEAN_MOTION_DOT": 1.319e-05,
    "MEAN_MOTION_DDOT": 0.0,
    "TLE_LINE1": "1 60277U 24131Y   25315.23126942  .00001319  00000+0  56644-4 0  9990",
    "TLE_LINE2": "2 60277  53.1610 242.5446 0001258  95.7771 264.3373 15.30204057 73587",
    "COMMENT": "Grouped by shell and plane from TLE"
  },
  {
    "OBJECT_NAME": "STARLINK-32156",
    "OBJECT_ID": "24132A",
    "EPOCH": "2025-11-11T02:11:18.104064",
    "MEAN_MOTION": 15.30118647,
    "ECCENTRICITY": 0.0001072,
    "INCLINATION": 53.1583,
    "RA_OF_ASC_NODE": 243.226,
    "ARG_OF_PERICENTER": 103.1999,
    "MEAN_ANOMALY": 256.9121,
    "EPHEMERIS_TYPE": 0,
    "CLASSIFICATION_TYPE": "U",
    "NORAD_CAT_ID": 60278,
    "ELEMENT_SET_NO": 999,
    "REV_AT_EPOCH": 7462,
    "BSTAR": 0.0015485,
    "MEAN_MOTION_DOT": 0.00045669,
    "MEAN_MOTION_DDOT": 0.0,
    "TLE_LINE1": "1 60278U 24132A   25315.09118176  .00045669  00000+0  15485-2 0  9998",
    "TLE_LINE2": "2 60278  53.1583 243.2260 0001072 103.1999 256.9121 15.30118647 74622",
    "COMMENT": "Grouped by shell and plane from TLE"
  },
  {
    "OBJECT_NAME": "STARLINK-32010",
    "OBJECT_ID": "24132B",
    "EPOCH": "2025-11-11T04:32:26.509344",
    "MEAN_MOTION": 15.30195213,
    "ECCENTRICITY": 0.0001369,
    "INCLINATION": 53.162,
    "RA_OF_ASC_NODE": 243.1267,
    "ARG_OF_PERICENTER": 95.7399,
    "MEAN_ANOMALY": 264.3758,
    "EPHEMERIS_TYPE": 0,
    "CLASSIFICATION_TYPE": "U",
    "NORAD_CAT_ID": 60279,
    "ELEMENT_SET_NO": 999,
    "REV_AT_EPOCH": 7341,
    "BSTAR": 9.3233e-05,
    "MEAN_MOTION_DOT": 2.403e-05,
    "MEAN_MOTION_DDOT": 0.0,
    "TLE_LINE1": "1 60279U 24132B   25315.18919571  .00002403  00000+0  93233-4 0  9995",
    "TLE_LINE2": "2 60279  53.1620 243.1267 0001369  95.7399 264.3758 15.30195213 73419",
    "COMMENT": "Grouped by shell and plane from TLE"
  },
  {
    "OBJECT_NAME": "STARLINK-32118",
    "OBJECT_ID": "24132C",
    "EPOCH": "2025-11-11T05:10:13.265184",
    "MEAN_MOTION": 15.30237772,
    "ECCENTRICITY": 0.0001411,
    "INCLINATION": 53.1608,
    "RA_OF_ASC_NODE": 242.5788,
    "ARG_OF_PERICENTER": 84.4684,
    "MEAN_ANOMALY": 275.6478,
    "EPHEMERIS_TYPE": 0,
    "CLASSIFICATION_TYPE": "U",
    "NORAD_CAT_ID": 60280,
    "ELEMENT_SET_NO": 999,
    "REV_AT_EPOCH": 7342,
    "BSTAR": 0.00025344,
    "MEAN_MOTION_DOT": 7.163e-05,
    "MEAN_MOTION_DDOT": 0.0,
    "TLE_LINE1": "1 60280U 24132C   25315.21543131  .00007163  00000+0  25344-3 0  9991",
    "TLE_LINE2": "2 60280  53.1608 242.5788 0001411  84.4684 275.6478 15.30237772 73420",
    "COMMENT": "Grouped by shell and plane from TLE"
  },
  {
    "OBJECT_NAME": "STARLINK-32038",
    "OBJECT_ID": "24132D",
    "EPOCH": "2025-11-11T05:13:18.429888",
    "MEAN_MOTION": 15.30202544,
    "ECCENTRICITY": 0.0001365,
    "INCLINATION": 53.1602,
    "RA_OF_ASC_NODE": 242.5889,
    "ARG_OF_PERICENTER": 76.1113,
    "MEAN_ANOMALY": 284.0039,
    "EPHEMERIS_TYPE": 0,
    "CLASSIFICATION_TYPE": "U",
    "NORAD_CAT_ID": 60281,
    "ELEMENT_SET_NO": 999,
    "REV_AT_EPOCH": 7342,
    "BSTAR": 3.33e-05,
    "MEAN_MOTION_DOT": 6.27e-06,
    "MEAN_MOTION_DDOT": 0.0,
    "TLE_LINE1": "1 60281U 24132D   25315.21757442  .00000627  00000+0  33300-4 0  9994",
    "TLE_LINE2": "2 60281  53.1602 242.5889 0001365  76.1113 284.0039 15.30202544 73426",
    "COMMENT": "Grouped by shell and plane from TLE"
  },
  {
    "OBJECT_NAME": "STARLINK-32113",
    "OBJECT_ID": "24132E",
    "EPOCH": "2025-11-11T05:14:52.332000",
    "MEAN_MOTION": 15.3016448,
    "ECCENTRICITY": 0.0001496,
    "INCLINATION": 53.161,
    "RA_OF_ASC_NODE": 242.596,
    "ARG_OF_PERICENTER": 68.3374,
    "MEAN_ANOMALY": 291.7786,
    "EPHEMERIS_TYPE": 0,
    "CLASSIFICATION_TYPE": "U",
    "NORAD_CAT_ID": 60282,
    "ELEMENT_SET_NO": 999,
    "REV_AT_EPOCH": 7342,
    "BSTAR": 0.0,
    "MEAN_MOTION_DOT": -1.892e-05,
    "MEAN_MOTION_DDOT": 0.0,
    "TLE_LINE1": "1 60282U 24132E   25315.21866125 -.00001892  00000+0 -51833-4 0  9992",
    "TLE_LINE2": "2 60282  53.1610 242.5960 0001496  68.3374 291.7786 15.30164480 73423",
    "COMMENT": "Grouped by shell and plane from TLE"
  },
  {
    "OBJECT_NAME": "STARLINK-32037",
    "OBJECT_ID": "24132F",
    "EPOCH": "2025-11-11T05:43:41.392992",
    "MEAN_MOTION": 15.30208871,
    "ECCENTRICITY": 0.0001418,
    "INCLINATION": 53.1619,
    "RA_OF_ASC_NODE": 242.7204,
    "ARG_OF_PERICENTER": 75.8203,
    "MEAN_ANOMALY": 284.2955,
    "EPHEMERIS_TYPE": 0,
    "CLASSIFICATION_TYPE": "U",
    "NORAD_CAT_ID": 60283,
    "ELEMENT_SET_NO": 999,
    "REV_AT_EPOCH": 7342,
    "BSTAR": 6.5245e-05,
    "MEAN_MOTION_DOT": 1.574e-05,
    "MEAN_MOTION_DDOT": 0.0,
    "TLE_LINE1": "1 60283U 24132F   25315.23867353  .00001574  00000+0  65245-4 0  9996",
    "TLE_LINE2": "2 60283  53.1619 242.7204 0001418  75.8203 284.2955 15.30208871 73422",
    "COMMENT": "Grouped by shell and plane from TLE"
  },
  {
    "OBJECT_NAME": "STARLINK-32122",
    "OBJECT_ID": "24132H",
    "EPOCH": "2025-11-11T05:34:34.883616",
    "MEAN_MOTION": 15.30196338,
    "ECCENTRICITY": 0.0001208,
    "INCLINATION": 53.1617,
    "RA_OF_ASC_NODE": 242.6832,
    "ARG_OF_PERICENTER": 72.9361,
    "MEAN_ANOMALY": 287.1772,
    "EPHEMERIS_TYPE": 0,
    "CLASSIFICATION_TYPE": "U",
    "NORAD_CAT_ID": 60285,
    "ELEMENT_SET_NO": 999,
    "REV_AT_EPOCH": 7342,
    "BSTAR": 7.2718e-05,
    "MEAN_MOTION_DOT": 1.795e-05,
    "MEAN_MOTION_DDOT": 0.0,
    "TLE_LINE1": "1 60285U 24132H   25315.23234819  .00001795  00000+0  72718-4 0  9991",
    "TLE_LINE2": "2 60285  53.1617 242.6832 0001208  72.9361 287.1772 15.30196338 73421",
    "COMMENT": "Grouped by shell and plane from TLE"
  },
  {
    "OBJECT_NAME": "STARLINK-31656",
    "OBJECT_ID": "24132J",
    "EPOCH": "2025-11-11T05:01:08.116608",
    "MEAN_MOTION": 15.30205554,
    "ECCENTRICITY": 0.0001414,
    "INCLINATION": 53.16,
    "RA_OF_ASC_NODE": 242.5438,
    "ARG_OF_PERICENTER": 79.56,
    "MEAN_ANOMALY": 280.556,
    "EPHEMERIS_TYPE": 0,
    "CLASSIFICATION_TYPE": "U",
    "NORAD_CAT_ID": 60286,
    "ELEMENT_SET_NO": 999,
    "REV_AT_EPOCH": 7342,
    "BSTAR": 8.278900000000001e-05,
    "MEAN_MOTION_DOT": 2.094e-05,
    "MEAN_MOTION_DDOT": 0.0,
    "TLE_LINE1": "1 60286U 24132J   25315.20912172  .00002094  00000+0  82789-4 0  9996",
    "TLE_LINE2": "2 60286  53.1600 242.5438 0001414  79.5600 280.5560 15.30205554 73426",
    "COMMENT": "Grouped by shell and plane from TLE"
  }
]